[{"OBJECT_NAME":"INSAT-1C","OBJECT_ID":"1988-063A","EPOCH":"2026-03-06T12:13:28.378272","MEAN_MOTION":1.00240404,"ECCENTRICITY":0.0003773,"INCLINATION":11.4602,"RA_OF_ASC_NODE":328.4554,"ARG_OF_PERICENTER":125.3429,"MEAN_ANOMALY":341.8634,"EPHEMERIS_TYPE":0,"CLASSIFICATION_TYPE":"U","NORAD_CAT_ID":19330,"ELEMENT_SET_NO":999,"REV_AT_EPOCH":11931,"BSTAR":0,"MEAN_MOTION_DOT":-2.22e-6,"MEAN_MOTION_DDOT":0},{"OBJECT_NAME":"COSMOS 1961","OBJECT_ID":"1988-066A","EPOCH":"2026-03-06T14:04:58.737216","MEAN_MOTION":1.00275091,"ECCENTRICITY":0.00017489,"INCLINATION":11.5935,"RA_OF_ASC_NODE":330.3872,"ARG_OF_PERICENTER":157.4303,"MEAN_ANOMALY":327.9159,"EPHEMERIS_TYPE":0,"CLASSIFICATION_TYPE":"U","NORAD_CAT_ID":19344,"ELEMENT_SET_NO":999,"REV_AT_EPOCH":13798,"BSTAR":0,"MEAN_MOTION_DOT":-1.56e-6,"MEAN_MOTION_DDOT":0},{"OBJECT_NAME":"GORIZONT 16","OBJECT_ID":"1988-071A","EPOCH":"2026-03-07T00:11:01.970016","MEAN_MOTION":0.99987327,"ECCENTRICITY":0.0011778,"INCLINATION":11.6604,"RA_OF_ASC_NODE":330.4848,"ARG_OF_PERICENTER":77.5802,"MEAN_ANOMALY":110.5634,"EPHEMERIS_TYPE":0,"CLASSIFICATION_TYPE":"U","NORAD_CAT_ID":19397,"ELEMENT_SET_NO":999,"REV_AT_EPOCH":13721,"BSTAR":0,"MEAN_MOTION_DOT":-1.4e-6,"MEAN_MOTION_DDOT":0},{"OBJECT_NAME":"SL-12 R/B(2)","OBJECT_ID":"1988-071D","EPOCH":"2026-03-06T20:56:14.972928","MEAN_MOTION":1.00545753,"ECCENTRICITY":0.0019069,"INCLINATION":11.3858,"RA_OF_ASC_NODE":329.7203,"ARG_OF_PERICENTER":240.7834,"MEAN_ANOMALY":296.4281,"EPHEMERIS_TYPE":0,"CLASSIFICATION_TYPE":"U","NORAD_CAT_ID":19400,"ELEMENT_SET_NO":999,"REV_AT_EPOCH":13167,"BSTAR":0,"MEAN_MOTION_DOT":1.31e-6,"MEAN_MOTION_DDOT":0},{"OBJECT_NAME":"GSTAR 3","OBJECT_ID":"1988-081A","EPOCH":"2026-03-06T09:42:57.862368","MEAN_MOTION":1.00271973,"ECCENTRICITY":0.0004545,"INCLINATION":11.2638,"RA_OF_ASC_NODE":319.131,"ARG_OF_PERICENTER":219.6556,"MEAN_ANOMALY":25.8008,"EPHEMERIS_TYPE":0,"CLASSIFICATION_TYPE":"U","NORAD_CAT_ID":19483,"ELEMENT_SET_NO":999,"REV_AT_EPOCH":13356,"BSTAR":0,"MEAN_MOTION_DOT":-1.06e-6,"MEAN_MOTION_DDOT":0},{"OBJECT_NAME":"SBS 5","OBJECT_ID":"1988-081B","EPOCH":"2026-03-07T00:18:01.298592","MEAN_MOTION":0.99795095,"ECCENTRICITY":0.000849,"INCLINATION":14.5823,"RA_OF_ASC_NODE":1.7022,"ARG_OF_PERICENTER":317.4789,"MEAN_ANOMALY":225.5493,"EPHEMERIS_TYPE":0,"CLASSIFICATION_TYPE":"U","NORAD_CAT_ID":19484,"ELEMENT_SET_NO":999,"REV_AT_EPOCH":4544,"BSTAR":0,"MEAN_MOTION_DOT":-5.0e-8,"MEAN_MOTION_DDOT":0},{"OBJECT_NAME":"TDRS 3","OBJECT_ID":"1988-091B","EPOCH":"2026-03-05T19:09:20.611872","MEAN_MOTION":1.00259845,"ECCENTRICITY":0.00441837,"INCLINATION":12.6797,"RA_OF_ASC_NODE":341.6841,"ARG_OF_PERICENTER":353.3967,"MEAN_ANOMALY":66.2018,"EPHEMERIS_TYPE":0,"CLASSIFICATION_TYPE":"U","NORAD_CAT_ID":19548,"ELEMENT_SET_NO":999,"REV_AT_EPOCH":12435,"BSTAR":0,"MEAN_MOTION_DOT":-3.03e-6,"MEAN_MOTION_DDOT":0},{"OBJECT_NAME":"IUS R/B(2)","OBJECT_ID":"1988-091D","EPOCH":"2026-03-07T03:19:43.876128","MEAN_MOTION":1.00477851,"ECCENTRICITY":0.0020647,"INCLINATION":12.3341,"RA_OF_ASC_NODE":331.7279,"ARG_OF_PERICENTER":304.3802,"MEAN_ANOMALY":231.321,"EPHEMERIS_TYPE":0,"CLASSIFICATION_TYPE":"U","NORAD_CAT_ID":19550,"ELEMENT_SET_NO":999,"REV_AT_EPOCH":12908,"BSTAR":0,"MEAN_MOTION_DOT":-2.97e-6,"MEAN_MOTION_DDOT":0},{"OBJECT_NAME":"RADUGA 22","OBJECT_ID":"1988-095A","EPOCH":"2026-03-06T12:18:17.938368","MEAN_MOTION":1.0016884,"ECCENTRICITY":0.00045307,"INCLINATION":11.676,"RA_OF_ASC_NODE":330.8092,"ARG_OF_PERICENTER":205.4128,"MEAN_ANOMALY":269.0912,"EPHEMERIS_TYPE":0,"CLASSIFICATION_TYPE":"U","NORAD_CAT_ID":19596,"ELEMENT_SET_NO":999,"REV_AT_EPOCH":12062,"BSTAR":0,"MEAN_MOTION_DOT":-2.77e-6,"MEAN_MOTION_DDOT":0},{"OBJECT_NAME":"STTW-3","OBJECT_ID":"1988-111A","EPOCH":"2026-03-05T15:32:20.997600","MEAN_MOTION":1.00194156,"ECCENTRICITY":0.0003512,"INCLINATION":14.1048,"RA_OF_ASC_NODE":346.3379,"ARG_OF_PERICENTER":196.3398,"MEAN_ANOMALY":282.9616,"EPHEMERIS_TYPE":0,"CLASSIFICATION_TYPE":"U","NORAD_CAT_ID":19710,"ELEMENT_SET_NO":999,"REV_AT_EPOCH":12980,"BSTAR":0,"MEAN_MOTION_DOT":-4.3e-7,"MEAN_MOTION_DDOT":0},{"OBJECT_NAME":"IUS R/B(2)","OBJECT_ID":"1989-021D","EPOCH":"2026-03-06T14:05:15.969696","MEAN_MOTION":1.00621966,"ECCENTRICITY":0.00227802,"INCLINATION":8.8722,"RA_OF_ASC_NODE":321.0261,"ARG_OF_PERICENTER":192.2322,"MEAN_ANOMALY":306.0839,"EPHEMERIS_TYPE":0,"CLASSIFICATION_TYPE":"U","NORAD_CAT_ID":19913,"ELEMENT_SET_NO":999,"REV_AT_EPOCH":12462,"BSTAR":0,"MEAN_MOTION_DOT":-2.56e-6,"MEAN_MOTION_DDOT":0},{"OBJECT_NAME":"RADUGA 23","OBJECT_ID":"1989-030A","EPOCH":"2026-03-06T15:22:35.262624","MEAN_MOTION":1.00261299,"ECCENTRICITY":0.00187278,"INCLINATION":11.9231,"RA_OF_ASC_NODE":332.6577,"ARG_OF_PERICENTER":209.2217,"MEAN_ANOMALY":331.9767,"EPHEMERIS_TYPE":0,"CLASSIFICATION_TYPE":"U","NORAD_CAT_ID":19928,"ELEMENT_SET_NO":999,"REV_AT_EPOCH":13382,"BSTAR":0,"MEAN_MOTION_DOT":-3.76e-6,"MEAN_MOTION_DDOT":0},{"OBJECT_NAME":"SUPERBIRD-A","OBJECT_ID":"1989-041A","EPOCH":"2026-03-06T20:55:45.019776","MEAN_MOTION":0.99750737,"ECCENTRICITY":0.0003951,"INCLINATION":12.2946,"RA_OF_ASC_NODE":333.0005,"ARG_OF_PERICENTER":55.033,"MEAN_ANOMALY":116.8334,"EPHEMERIS_TYPE":0,"CLASSIFICATION_TYPE":"U","NORAD_CAT_ID":20040,"ELEMENT_SET_NO":999,"REV_AT_EPOCH":13344,"BSTAR":0,"MEAN_MOTION_DOT":5.9e-7,"MEAN_MOTION_DDOT":0},{"OBJECT_NAME":"DFS 1","OBJECT_ID":"1989-041B","EPOCH":"2026-03-06T21:58:38.449920","MEAN_MOTION":1.00666157,"ECCENTRICITY":0.0017223,"INCLINATION":14.0402,"RA_OF_ASC_NODE":347.3307,"ARG_OF_PERICENTER":308.882,"MEAN_ANOMALY":244.3891,"EPHEMERIS_TYPE":0,"CLASSIFICATION_TYPE":"U","NORAD_CAT_ID":20041,"ELEMENT_SET_NO":999,"REV_AT_EPOCH":12346,"BSTAR":0,"MEAN_MOTION_DOT":5.0e-7,"MEAN_MOTION_DDOT":0},{"OBJECT_NAME":"TVSAT 2","OBJECT_ID":"1989-062A","EPOCH":"2026-03-07T00:40:38.646048","MEAN_MOTION":0.99854902,"ECCENTRICITY":0.0002871,"INCLINATION":14.6954,"RA_OF_ASC_NODE":356.5633,"ARG_OF_PERICENTER":227.7695,"MEAN_ANOMALY":315.6887,"EPHEMERIS_TYPE":0,"CLASSIFICATION_TYPE":"U","NORAD_CAT_ID":20168,"ELEMENT_SET_NO":999,"REV_AT_EPOCH":13348,"BSTAR":0,"MEAN_MOTION_DOT":-6.7e-7,"MEAN_MOTION_DDOT":0},{"OBJECT_NAME":"FLTSATCOM 8 (USA 46)","OBJECT_ID":"1989-077A","EPOCH":"2026-03-06T12:33:43.479360","MEAN_MOTION":1.00261933,"ECCENTRICITY":0.00086128,"INCLINATION":12.4497,"RA_OF_ASC_NODE":351.778,"ARG_OF_PERICENTER":335.1934,"MEAN_ANOMALY":151.1159,"EPHEMERIS_TYPE":0,"CLASSIFICATION_TYPE":"U","NORAD_CAT_ID":20253,"ELEMENT_SET_NO":999,"REV_AT_EPOCH":25953,"BSTAR":0,"MEAN_MOTION_DOT":-3.7e-6,"MEAN_MOTION_DDOT":0},{"OBJECT_NAME":"GORIZONT 19","OBJECT_ID":"1989-081A","EPOCH":"2026-03-05T16:10:51.609216","MEAN_MOTION":1.00211568,"ECCENTRICITY":0.00058342,"INCLINATION":12.1887,"RA_OF_ASC_NODE":334.1833,"ARG_OF_PERICENTER":283.5271,"MEAN_ANOMALY":248.8745,"EPHEMERIS_TYPE":0,"CLASSIFICATION_TYPE":"U","NORAD_CAT_ID":20263,"ELEMENT_SET_NO":999,"REV_AT_EPOCH":4630,"BSTAR":0,"MEAN_MOTION_DOT":-3.15e-6,"MEAN_MOTION_DDOT":0}]
